GLOBALSTAR M068         
1 32266U 07048D   24142.22280421 -.00000073  00000+0  17007-3 0  9990
2 32266  51.9902  57.0588 0001329  22.1467 142.9441 12.62789298768322
GLOBALSTAR M079         
1 37188U 10054A   24141.50761319 -.00000087  00000+0  93563-4 0  9996
2 37188  52.0039 255.1653 0000824 136.1704 304.0944 12.62270093626865
GLOBALSTAR M074         
1 37189U 10054B   24141.61810948 -.00000089  00000+0  80959-4 0  9999
2 37189  52.0014 254.2133 0000560 127.2222 334.6343 12.62268720627480
GLOBALSTAR M076         
1 37190U 10054C   24141.73334317 -.00000087  00000+0  92915-4 0  9998
2 37190  52.0027 253.9951 0000720 171.5297 336.2046 12.62279073627573
GLOBALSTAR M077         
1 37191U 10054D   24141.38894162 -.00000069  00000+0  19490-3 0  9995
2 37191  52.0060 211.7895 0000281 153.8164 286.4774 12.62273326627544
GLOBALSTAR M075         
1 37192U 10054E   24141.40146334 -.00000079  00000+0  13795-3 0  9993
2 37192  51.9954 297.4826 0000889 112.0332 265.7799 12.62274407626400
GLOBALSTAR M073         
1 37193U 10054F   24142.19735760 -.00000060  00000+0  24283-3 0  9992
2 37193  52.0045 208.5809 0000395 160.7275 234.5075 12.62265500628380
GLOBALSTAR M083         
1 37739U 11033A   24142.21976193 -.00000083  00000+0  11382-3 0  9997
2 37739  51.9831 157.7773 0000341  82.1473 356.2873 12.62270161597719
GLOBALSTAR M088         
1 37740U 11033B   24141.78414622 -.00000100  00000+0  22452-4 0  9995
2 37740  51.9747  64.9231 0000771  71.0337 307.3434 12.62268275593133
GLOBALSTAR M091         
1 37741U 11033C   24141.89059644 -.00000081  00000+0  12699-3 0  9996
2 37741  52.0021  27.4548 0001091  81.1358   0.2290 12.62262844593907
GLOBALSTAR M085         
1 37742U 11033D   24141.02472937 -.00000073  00000+0  17215-3 0  9996
2 37742  51.9885 341.4775 0001126  94.7823  70.8077 12.62271169594043
GLOBALSTAR M081         
1 37743U 11033E   24141.49170260 -.00000066  00000+0  20894-3 0  9991
2 37743  51.9975 342.6007 0001093 106.0626 262.0125 12.62265011594257
GLOBALSTAR M089         
1 37744U 11033F   24141.37357292 -.00000086  00000+0  10036-3 0  9990
2 37744  51.9935 297.2639 0000621 137.5306 232.2013 12.62263890595080
GLOBALSTAR M084         
1 38040U 11080A   24142.02143748 -.00000062  00000+0  23127-3 0  9993
2 38040  51.9984 162.3680 0000169 274.4117 102.5019 12.62262738573429
GLOBALSTAR M080         
1 38041U 11080B   24141.92741904 -.00000056  00000+0  26691-3 0  9992
2 38041  52.0036 164.1242 0000401 233.0851 195.8258 12.62272997573393
GLOBALSTAR M082         
1 38042U 11080C   24141.40744321 -.00000089  00000+0  81343-4 0  9994
2 38042  52.0060 121.1109 0000882  46.8803 117.4667 12.62269713573897
GLOBALSTAR M092         
1 38043U 11080D   24141.69998769 -.00000084  00000+0  11129-3 0  9992
2 38043  52.0072 210.5752 0000196 137.2604  38.8437 12.62262579572590
GLOBALSTAR M090         
1 38044U 11080E   24141.35072279 -.00000093  00000+0  62384-4 0  9995
2 38044  51.9869 115.5969 0000628  55.4101  91.6901 12.62263342574000
GLOBALSTAR M086         
1 38045U 11080F   24141.38082722 -.00000082  00000+0  11910-3 0  9999
2 38045  51.9883 116.0253 0000790 150.1118  14.2675 12.62271145573952
GLOBALSTAR M097         
1 39072U 13005A   24142.08421181 -.00000084  00000+0  11159-3 0  9990
2 39072  52.0070  28.0358 0000971  87.1159 272.9819 12.62263054521378
GLOBALSTAR M093         
1 39073U 13005B   24141.82000058 -.00000079  00000+0  14028-3 0  9990
2 39073  51.9834  22.7697 0001097  89.6596 270.4396 12.62259348521334
GLOBALSTAR M094         
1 39074U 13005C   24141.74081868 -.00000093  00000+0  61642-4 0  9991
2 39074  51.9965 297.0007 0001025 115.5276 244.5696 12.62266109522831
GLOBALSTAR M096         
1 39075U 13005D   24140.96210089 -.00000071  00000+0  18157-3 0  9992
2 39075  52.0093 347.5790 0001194  96.0260 264.0743 12.62265866521635
GLOBALSTAR M078         
1 39076U 13005E   24141.80720506 -.00000040  00000+0  35422-3 0  9997
2 39076  51.9884  70.0508 0001492  44.7353 315.3634 12.62275188520570
GLOBALSTAR M095         
1 39077U 13005F   24141.83284051 -.00000102  00000+0  10486-4 0  9994
2 39077  51.9812  67.3590 0001262  65.0627 295.0371 12.62266278520580
GLOBALSTAR M087         
1 52888U 22064A   24141.83496785 -.00000069  00000+0  11313-3 0  9994
2 52888  51.9763 303.7573 0008608 296.2895  63.7121 13.37574408 93863
